start=new Date('2021-11-08T00:00:00.000Z').valueOf();
sats=[{"MEAN_ELEMENT_THEORY":"SGP4","SEMIMAJOR_AXIS":"6925.426","DECAY_DATE":null,"CLASSIFICATION_TYPE":"U","REF_FRAME":"TEME","ARG_OF_PERICENTER":"66.1737","EPHEMERIS_TYPE":"0","LAUNCH_DATE":"2021-05-04","ECCENTRICITY":"0.00013440","SITE":"AFETR","TLE_LINE1":"1 48390U 21038AP  21311.54103811  .00009782  00000-0  67511-3 0  9998","INCLINATION":"53.0542","OBJECT_NAME":"STARLINK-2586","FILE":"3207387","RA_OF_ASC_NODE":"248.6422","NORAD_CAT_ID":"48390","GP_ID":"189181907","ELEMENT_SET_NO":"999","TIME_SYSTEM":"UTC","PERIAPSIS":"546.361","COUNTRY_CODE":"US","MEAN_MOTION":"15.06374593","TLE_LINE2":"2 48390  53.0542 248.6422 0001344  66.1737 293.9393 15.06374593 29906","OBJECT_ID":"2021-038AP","MEAN_MOTION_DOT":"0.00009782","RCS_SIZE":"LARGE","REV_AT_EPOCH":"2990","PERIOD":"95.594","APOAPSIS":"548.222","OBJECT_TYPE":"PAYLOAD","MEAN_ANOMALY":"293.9393","BSTAR":"0.00067511000000","EPOCH":"2021-11-07T12:59:05.692704","MEAN_MOTION_DDOT":"0.0000000000000","CENTER_NAME":"EARTH"},{"DECAY_DATE":null,"SEMIMAJOR_AXIS":"6925.391","MEAN_ELEMENT_THEORY":"SGP4","LAUNCH_DATE":"2021-05-04","ARG_OF_PERICENTER":"81.6041","EPHEMERIS_TYPE":"0","REF_FRAME":"TEME","CLASSIFICATION_TYPE":"U","ECCENTRICITY":"0.00013140","TLE_LINE1":"1 48391U 21038AQ  21311.86908150 -.00000268  00000-0  89148-6 0  9997","SITE":"AFETR","TIME_SYSTEM":"UTC","ELEMENT_SET_NO":"999","GP_ID":"189216509","NORAD_CAT_ID":"48391","RA_OF_ASC_NODE":"247.1699","OBJECT_NAME":"STARLINK-2607","FILE":"3207836","INCLINATION":"53.0547","TLE_LINE2":"2 48391  53.0547 247.1699 0001314  81.6041 278.5097 15.06386119 29951","MEAN_MOTION":"15.06386119","COUNTRY_CODE":"US","PERIAPSIS":"546.346","PERIOD":"95.593","REV_AT_EPOCH":"2995","RCS_SIZE":"LARGE","MEAN_MOTION_DOT":"-0.00000268","OBJECT_ID":"2021-038AQ","MEAN_MOTION_DDOT":"0.0000000000000","CENTER_NAME":"EARTH","EPOCH":"2021-11-07T20:51:28.641600","BSTAR":"0.00000089148000","APOAPSIS":"548.166","OBJECT_TYPE":"PAYLOAD","MEAN_ANOMALY":"278.5097"},{"TLE_LINE1":"1 48392U 21038AR  21311.53367620 -.00000067  00000-0  14419-4 0  9997","SITE":"AFETR","ECCENTRICITY":"0.00014600","LAUNCH_DATE":"2021-05-04","ARG_OF_PERICENTER":"85.3482","EPHEMERIS_TYPE":"0","REF_FRAME":"TEME","CLASSIFICATION_TYPE":"U","DECAY_DATE":null,"SEMIMAJOR_AXIS":"6925.390","MEAN_ELEMENT_THEORY":"SGP4","MEAN_MOTION_DDOT":"0.0000000000000","CENTER_NAME":"EARTH","EPOCH":"2021-11-07T12:48:29.623680","BSTAR":"0.00001441900000","OBJECT_TYPE":"PAYLOAD","MEAN_ANOMALY":"274.7674","APOAPSIS":"548.266","PERIOD":"95.593","REV_AT_EPOCH":"2927","MEAN_MOTION_DOT":"-0.00000067","RCS_SIZE":"LARGE","OBJECT_ID":"2021-038AR","TLE_LINE2":"2 48392  53.0539 248.6747 0001460  85.3482 274.7674 15.06386481 29271","COUNTRY_CODE":"US","MEAN_MOTION":"15.06386481","PERIAPSIS":"546.244","GP_ID":"189190994","ELEMENT_SET_NO":"999","TIME_SYSTEM":"UTC","RA_OF_ASC_NODE":"248.6747","NORAD_CAT_ID":"48392","INCLINATION":"53.0539","OBJECT_NAME":"STARLINK-2605","FILE":"3207691"},{"SEMIMAJOR_AXIS":"6925.448","DECAY_DATE":null,"MEAN_ELEMENT_THEORY":"SGP4","EPHEMERIS_TYPE":"0","ARG_OF_PERICENTER":"85.6441","LAUNCH_DATE":"2021-05-04","CLASSIFICATION_TYPE":"U","REF_FRAME":"TEME","ECCENTRICITY":"0.00013000","TLE_LINE1":"1 48393U 21038AS  21311.52998856 -.00002611  00000-0 -15660-3 0  9994","SITE":"AFETR","NORAD_CAT_ID":"48393","RA_OF_ASC_NODE":"248.6944","TIME_SYSTEM":"UTC","GP_ID":"189191080","ELEMENT_SET_NO":"999","OBJECT_NAME":"STARLINK-2602","FILE":"3207688","INCLINATION":"53.0555","TLE_LINE2":"2 48393  53.0555 248.6944 0001300  85.6441 274.4697 15.06367637 29274","PERIAPSIS":"546.412","MEAN_MOTION":"15.06367637","COUNTRY_CODE":"US","REV_AT_EPOCH":"2927","PERIOD":"95.594","OBJECT_ID":"2021-038AS","RCS_SIZE":"LARGE","MEAN_MOTION_DOT":"-0.00002611","EPOCH":"2021-11-07T12:43:11.011584","BSTAR":"-0.00015660000000","MEAN_MOTION_DDOT":"0.0000000000000","CENTER_NAME":"EARTH","OBJECT_TYPE":"PAYLOAD","MEAN_ANOMALY":"274.4697","APOAPSIS":"548.213"},{"OBJECT_ID":"2021-038AT","RCS_SIZE":"LARGE","MEAN_MOTION_DOT":"-0.00002027","REV_AT_EPOCH":"2990","PERIOD":"95.592","APOAPSIS":"548.073","OBJECT_TYPE":"PAYLOAD","MEAN_ANOMALY":"270.1606","EPOCH":"2021-11-07T12:37:51.646944","BSTAR":"-0.00011723000000","CENTER_NAME":"EARTH","MEAN_MOTION_DDOT":"0.0000000000000","FILE":"3207387","OBJECT_NAME":"STARLINK-2573","INCLINATION":"53.0546","NORAD_CAT_ID":"48394","RA_OF_ASC_NODE":"248.7036","TIME_SYSTEM":"UTC","GP_ID":"189181909","ELEMENT_SET_NO":"999","PERIAPSIS":"546.336","MEAN_MOTION":"15.06403077","COUNTRY_CODE":"US","TLE_LINE2":"2 48394  53.0546 248.7036 0001254  89.9527 270.1606 15.06403077 29900","ECCENTRICITY":"0.00012540","SITE":"AFETR","TLE_LINE1":"1 48394U 21038AT  21311.52629221 -.00002027  00000-0 -11723-3 0  9999","MEAN_ELEMENT_THEORY":"SGP4","SEMIMAJOR_AXIS":"6925.339","DECAY_DATE":null,"CLASSIFICATION_TYPE":"U","REF_FRAME":"TEME","EPHEMERIS_TYPE":"0","ARG_OF_PERICENTER":"89.9527","LAUNCH_DATE":"2021-05-04"},{"OBJECT_ID":"2021-038AU","RCS_SIZE":"LARGE","MEAN_MOTION_DOT":"-0.00001845","REV_AT_EPOCH":"2995","PERIOD":"95.593","OBJECT_TYPE":"PAYLOAD","MEAN_ANOMALY":"270.5543","APOAPSIS":"547.833","BSTAR":"-0.00010509000000","EPOCH":"2021-11-07T20:12:59.561856","CENTER_NAME":"EARTH","MEAN_MOTION_DDOT":"0.0000000000000","FILE":"3207836","OBJECT_NAME":"STARLINK-2574","INCLINATION":"53.0551","NORAD_CAT_ID":"48395","RA_OF_ASC_NODE":"247.2833","TIME_SYSTEM":"UTC","ELEMENT_SET_NO":"999","GP_ID":"189216009","PERIAPSIS":"546.717","MEAN_MOTION":"15.06379962","COUNTRY_CODE":"US","TLE_LINE2":"2 48395  53.0551 247.2833 0000806  89.5538 270.5543 15.06379962 29950","ECCENTRICITY":"0.00008060","SITE":"AFETR","TLE_LINE1":"1 48395U 21038AU  21311.84235604 -.00001845  00000-0 -10509-3 0  9991","MEAN_ELEMENT_THEORY":"SGP4","SEMIMAJOR_AXIS":"6925.410","DECAY_DATE":null,"CLASSIFICATION_TYPE":"U","REF_FRAME":"TEME","EPHEMERIS_TYPE":"0","ARG_OF_PERICENTER":"89.5538","LAUNCH_DATE":"2021-05-04"},{"TIME_SYSTEM":"UTC","ELEMENT_SET_NO":"999","GP_ID":"189216259","NORAD_CAT_ID":"48396","RA_OF_ASC_NODE":"247.2251","FILE":"3207836","OBJECT_NAME":"STARLINK-2575","INCLINATION":"53.0539","TLE_LINE2":"2 48396  53.0539 247.2251 0001523  68.8233 291.2919 15.06393596 29956","MEAN_MOTION":"15.06393596","COUNTRY_CODE":"US","PERIAPSIS":"546.178","PERIOD":"95.593","REV_AT_EPOCH":"2995","RCS_SIZE":"LARGE","MEAN_MOTION_DOT":"-0.00003076","OBJECT_ID":"2021-038AV","CENTER_NAME":"EARTH","MEAN_MOTION_DDOT":"0.0000000000000","EPOCH":"2021-11-07T20:30:13.974624","BSTAR":"-0.00018773000000","MEAN_ANOMALY":"291.2919","OBJECT_TYPE":"PAYLOAD","APOAPSIS":"548.288","DECAY_DATE":null,"SEMIMAJOR_AXIS":"6925.368","MEAN_ELEMENT_THEORY":"SGP4","LAUNCH_DATE":"2021-05-04","EPHEMERIS_TYPE":"0","ARG_OF_PERICENTER":"68.8233","REF_FRAME":"TEME","CLASSIFICATION_TYPE":"U","ECCENTRICITY":"0.00015230","TLE_LINE1":"1 48396U 21038AV  21311.85432841 -.00003076  00000-0 -18773-3 0  9994","SITE":"AFETR"},{"ARG_OF_PERICENTER":"74.6386","EPHEMERIS_TYPE":"0","LAUNCH_DATE":"2021-05-04","CLASSIFICATION_TYPE":"U","REF_FRAME":"TEME","SEMIMAJOR_AXIS":"6925.399","DECAY_DATE":null,"MEAN_ELEMENT_THEORY":"SGP4","TLE_LINE1":"1 48397U 21038AW  21311.51891504  .00002813  00000-0  20775-3 0  9994","SITE":"AFETR","ECCENTRICITY":"0.00015130","TLE_LINE2":"2 48397  53.0560 248.7445 0001513  74.6386 285.4770 15.06383453 29260","PERIAPSIS":"546.216","COUNTRY_CODE":"US","MEAN_MOTION":"15.06383453","RA_OF_ASC_NODE":"248.7445","NORAD_CAT_ID":"48397","ELEMENT_SET_NO":"999","GP_ID":"189191081","TIME_SYSTEM":"UTC","INCLINATION":"53.0560","OBJECT_NAME":"STARLINK-2590","FILE":"3207688","EPOCH":"2021-11-07T12:27:14.259456","BSTAR":"0.00020775000000","MEAN_MOTION_DDOT":"0.0000000000000","CENTER_NAME":"EARTH","MEAN_ANOMALY":"285.4770","OBJECT_TYPE":"PAYLOAD","APOAPSIS":"548.312","REV_AT_EPOCH":"2926","PERIOD":"95.593","OBJECT_ID":"2021-038AW","MEAN_MOTION_DOT":"0.00002813","RCS_SIZE":"LARGE"},{"INCLINATION":"53.0558","FILE":"3207836","OBJECT_NAME":"STARLINK-2588","ELEMENT_SET_NO":"999","GP_ID":"189217012","TIME_SYSTEM":"UTC","RA_OF_ASC_NODE":"247.2697","NORAD_CAT_ID":"48398","COUNTRY_CODE":"US","MEAN_MOTION":"15.06397016","PERIAPSIS":"546.255","TLE_LINE2":"2 48398  53.0558 247.2697 0001398  72.5088 287.6054 15.06397016 29953","MEAN_MOTION_DOT":"0.00014073","RCS_SIZE":"LARGE","OBJECT_ID":"2021-038AX","PERIOD":"95.592","REV_AT_EPOCH":"2995","OBJECT_TYPE":"PAYLOAD","APOAPSIS":"548.191","MEAN_ANOMALY":"287.6054","MEAN_MOTION_DDOT":"0.0000000000000","CENTER_NAME":"EARTH","EPOCH":"2021-11-07T20:19:38.290080","BSTAR":"0.00096182000000","MEAN_ELEMENT_THEORY":"SGP4","DECAY_DATE":null,"SEMIMAJOR_AXIS":"6925.358","REF_FRAME":"TEME","CLASSIFICATION_TYPE":"U","LAUNCH_DATE":"2021-05-04","EPHEMERIS_TYPE":"0","ARG_OF_PERICENTER":"72.5088","ECCENTRICITY":"0.00013980","SITE":"AFETR","TLE_LINE1":"1 48398U 21038AX  21311.84697095  .00014073  00000-0  96182-3 0  9996"},{"ECCENTRICITY":"0.00015960","SITE":"AFETR","TLE_LINE1":"1 48399U 21038AY  21311.31251839 -.00003860  00000-0 -24054-3 0  9994","MEAN_ELEMENT_THEORY":"SGP4","SEMIMAJOR_AXIS":"6925.430","DECAY_DATE":null,"CLASSIFICATION_TYPE":"U","REF_FRAME":"TEME","ARG_OF_PERICENTER":"74.9974","EPHEMERIS_TYPE":"0","LAUNCH_DATE":"2021-05-04","OBJECT_ID":"2021-038AY","RCS_SIZE":"LARGE","MEAN_MOTION_DOT":"-0.00003860","REV_AT_EPOCH":"2986","PERIOD":"95.594","MEAN_ANOMALY":"285.1192","OBJECT_TYPE":"PAYLOAD","APOAPSIS":"548.401","BSTAR":"-0.00024054000000","EPOCH":"2021-11-07T07:30:01.588896","CENTER_NAME":"EARTH","MEAN_MOTION_DDOT":"0.0000000000000","OBJECT_NAME":"STARLINK-2587","FILE":"3207387","INCLINATION":"53.0562","NORAD_CAT_ID":"48399","RA_OF_ASC_NODE":"249.6749","TIME_SYSTEM":"UTC","ELEMENT_SET_NO":"999","GP_ID":"189183729","PERIAPSIS":"546.190","MEAN_MOTION":"15.06373341","COUNTRY_CODE":"US","TLE_LINE2":"2 48399  53.0562 249.6749 0001596  74.9974 285.1192 15.06373341 29864"}];
